start=new Date('2023-01-10T00:00:00.000Z').valueOf();
sats=[{"PERIOD":"95.592","CLASSIFICATION_TYPE":"U","TLE_LINE1":"1 46119U 20057C   23009.51591587  .00003964  00000-0  28481-3 0  9998","SITE":"AFETR","SEMIMAJOR_AXIS":"6925.341","EPOCH":"2023-01-09T12:22:55.131168","EPHEMERIS_TYPE":"0","DECAY_DATE":null,"REV_AT_EPOCH":"13261","LAUNCH_DATE":"2020-08-18","NORAD_CAT_ID":"46119","ARG_OF_PERICENTER":"75.2991","MEAN_ELEMENT_THEORY":"SGP4","ELEMENT_SET_NO":"999","MEAN_MOTION":"15.06402450","MEAN_MOTION_DOT":"0.00003964","INCLINATION":"53.0552","OBJECT_TYPE":"PAYLOAD","BSTAR":"0.00028481000000","GP_ID":"222579009","OBJECT_ID":"2020-057C","TLE_LINE2":"2 46119  53.0552 102.3868 0001284  75.2991 284.8140 15.06402450132616","PERIAPSIS":"546.317","RCS_SIZE":"LARGE","COUNTRY_CODE":"US","OBJECT_NAME":"STARLINK-1593","RA_OF_ASC_NODE":"102.3868","FILE":"3737503","CENTER_NAME":"EARTH","MEAN_MOTION_DDOT":"0.0000000000000","ECCENTRICITY":"0.00012840","TIME_SYSTEM":"UTC","MEAN_ANOMALY":"284.8140","REF_FRAME":"TEME","APOAPSIS":"548.095"},{"ARG_OF_PERICENTER":"52.0619","MEAN_ELEMENT_THEORY":"SGP4","ELEMENT_SET_NO":"999","MEAN_MOTION_DOT":"0.00000851","MEAN_MOTION":"15.06404498","INCLINATION":"53.0527","OBJECT_TYPE":"PAYLOAD","PERIOD":"95.592","CLASSIFICATION_TYPE":"U","TLE_LINE1":"1 46120U 20057D   23009.63385381  .00000851  00000-0  76004-4 0  9993","SITE":"AFETR","EPOCH":"2023-01-09T15:12:44.969184","SEMIMAJOR_AXIS":"6925.335","EPHEMERIS_TYPE":"0","REV_AT_EPOCH":"13263","DECAY_DATE":null,"LAUNCH_DATE":"2020-08-18","NORAD_CAT_ID":"46120","FILE":"3737500","CENTER_NAME":"EARTH","MEAN_MOTION_DDOT":"0.0000000000000","ECCENTRICITY":"0.00020050","TIME_SYSTEM":"UTC","MEAN_ANOMALY":"308.0551","REF_FRAME":"TEME","APOAPSIS":"548.588","BSTAR":"0.00007600400000","GP_ID":"222579537","OBJECT_ID":"2020-057D","TLE_LINE2":"2 46120  53.0527 101.8762 0002005  52.0619 308.0551 15.06404498132630","RCS_SIZE":"LARGE","PERIAPSIS":"545.811","RA_OF_ASC_NODE":"101.8762","COUNTRY_CODE":"US","OBJECT_NAME":"STARLINK-1601"},{"ECCENTRICITY":"0.00024920","TIME_SYSTEM":"UTC","FILE":"3736966","CENTER_NAME":"EARTH","MEAN_MOTION_DDOT":"0.0000000000000","MEAN_ANOMALY":"324.9392","APOAPSIS":"548.939","REF_FRAME":"TEME","OBJECT_ID":"2020-057E","BSTAR":"0.00020428000000","GP_ID":"222513117","RCS_SIZE":"LARGE","TLE_LINE2":"2 46121  53.0537  82.0132 0002492  35.1761 324.9392 15.06400205132905","PERIAPSIS":"545.487","COUNTRY_CODE":"US","RA_OF_ASC_NODE":"82.0132","OBJECT_NAME":"STARLINK-1602","ELEMENT_SET_NO":"999","MEAN_MOTION":"15.06400205","MEAN_MOTION_DOT":"0.00002762","ARG_OF_PERICENTER":"35.1761","MEAN_ELEMENT_THEORY":"SGP4","OBJECT_TYPE":"PAYLOAD","INCLINATION":"53.0537","TLE_LINE1":"1 46121U 20057E   23009.60251747  .00002762  00000-0  20428-3 0  9990","PERIOD":"95.592","CLASSIFICATION_TYPE":"U","NORAD_CAT_ID":"46121","SITE":"AFETR","EPHEMERIS_TYPE":"0","SEMIMAJOR_AXIS":"6925.348","EPOCH":"2023-01-09T14:27:37.509408","REV_AT_EPOCH":"13290","DECAY_DATE":null,"LAUNCH_DATE":"2020-08-18"},{"ARG_OF_PERICENTER":"34.5040","MEAN_ELEMENT_THEORY":"SGP4","ELEMENT_SET_NO":"999","MEAN_MOTION_DOT":"0.00008698","MEAN_MOTION":"15.06413879","INCLINATION":"53.0544","OBJECT_TYPE":"PAYLOAD","PERIOD":"95.591","CLASSIFICATION_TYPE":"U","TLE_LINE1":"1 46122U 20057F   23009.14731427  .00008698  00000-0  60186-3 0  9997","SITE":"AFETR","EPOCH":"2023-01-09T03:32:07.952928","SEMIMAJOR_AXIS":"6925.306","EPHEMERIS_TYPE":"0","REV_AT_EPOCH":"13371","DECAY_DATE":null,"LAUNCH_DATE":"2020-08-18","NORAD_CAT_ID":"46122","FILE":"3737263","CENTER_NAME":"EARTH","MEAN_MOTION_DDOT":"0.0000000000000","ECCENTRICITY":"0.00025750","TIME_SYSTEM":"UTC","MEAN_ANOMALY":"325.6116","REF_FRAME":"TEME","APOAPSIS":"548.954","BSTAR":"0.00060186000000","GP_ID":"222540584","OBJECT_ID":"2020-057F","TLE_LINE2":"2 46122  53.0544  64.0457 0002575  34.5040 325.6116 15.06413879133712","PERIAPSIS":"545.388","RCS_SIZE":"LARGE","OBJECT_NAME":"STARLINK-1604","COUNTRY_CODE":"US","RA_OF_ASC_NODE":"64.0457"},{"DECAY_DATE":null,"REV_AT_EPOCH":"13377","LAUNCH_DATE":"2020-08-18","EPOCH":"2023-01-09T09:33:03.278304","SEMIMAJOR_AXIS":"6925.335","EPHEMERIS_TYPE":"0","SITE":"AFETR","NORAD_CAT_ID":"46123","CLASSIFICATION_TYPE":"U","PERIOD":"95.592","TLE_LINE1":"1 46123U 20057G   23009.39795461  .00002709  00000-0  20067-3 0  9994","INCLINATION":"53.0531","OBJECT_TYPE":"PAYLOAD","MEAN_ELEMENT_THEORY":"SGP4","ARG_OF_PERICENTER":"41.8631","MEAN_MOTION_DOT":"0.00002709","MEAN_MOTION":"15.06404484","ELEMENT_SET_NO":"999","COUNTRY_CODE":"US","OBJECT_NAME":"STARLINK-1605","RA_OF_ASC_NODE":"62.9318","TLE_LINE2":"2 46123  53.0531  62.9318 0001928  41.8631 318.2505 15.06404484133778","PERIAPSIS":"545.865","RCS_SIZE":"LARGE","GP_ID":"222540835","BSTAR":"0.00020067000000","OBJECT_ID":"2020-057G","REF_FRAME":"TEME","APOAPSIS":"548.535","MEAN_ANOMALY":"318.2505","MEAN_MOTION_DDOT":"0.0000000000000","CENTER_NAME":"EARTH","FILE":"3737263","ECCENTRICITY":"0.00019280","TIME_SYSTEM":"UTC"},{"GP_ID":"222579065","BSTAR":"0.00115760000000","OBJECT_ID":"2020-057H","COUNTRY_CODE":"US","OBJECT_NAME":"STARLINK-1614","RA_OF_ASC_NODE":"62.2980","RCS_SIZE":"LARGE","TLE_LINE2":"2 46124  53.0544  62.2980 0002366  62.6897 297.4332 15.06415944133187","PERIAPSIS":"545.526","MEAN_MOTION_DDOT":"0.0000000000000","CENTER_NAME":"EARTH","FILE":"3737502","ECCENTRICITY":"0.00023660","TIME_SYSTEM":"UTC","APOAPSIS":"548.803","REF_FRAME":"TEME","MEAN_ANOMALY":"297.4332","CLASSIFICATION_TYPE":"U","PERIOD":"95.591","TLE_LINE1":"1 46124U 20057H   23009.53803248  .00017010  00000-0  11576-2 0  9999","DECAY_DATE":null,"REV_AT_EPOCH":"13318","LAUNCH_DATE":"2020-08-18","EPOCH":"2023-01-09T12:54:46.006272","SEMIMAJOR_AXIS":"6925.300","EPHEMERIS_TYPE":"0","SITE":"AFETR","NORAD_CAT_ID":"46124","MEAN_ELEMENT_THEORY":"SGP4","ARG_OF_PERICENTER":"62.6897","MEAN_MOTION_DOT":"0.00017010","MEAN_MOTION":"15.06415944","ELEMENT_SET_NO":"999","INCLINATION":"53.0544","OBJECT_TYPE":"PAYLOAD"},{"RCS_SIZE":"LARGE","TLE_LINE2":"2 46125  53.0524 101.7877 0002021  51.5090 308.6080 15.06389072132636","PERIAPSIS":"545.847","OBJECT_NAME":"STARLINK-1618","COUNTRY_CODE":"US","RA_OF_ASC_NODE":"101.7877","OBJECT_ID":"2020-057J","BSTAR":"-0.00008859900000","GP_ID":"222579552","APOAPSIS":"548.647","REF_FRAME":"TEME","MEAN_ANOMALY":"308.6080","TIME_SYSTEM":"UTC","ECCENTRICITY":"0.00020210","FILE":"3737502","MEAN_MOTION_DDOT":"0.0000000000000","CENTER_NAME":"EARTH","NORAD_CAT_ID":"46125","SEMIMAJOR_AXIS":"6925.382","EPHEMERIS_TYPE":"0","EPOCH":"2023-01-09T15:39:17.622720","SITE":"AFETR","DECAY_DATE":null,"REV_AT_EPOCH":"13263","LAUNCH_DATE":"2020-08-18","TLE_LINE1":"1 46125U 20057J   23009.65228730 -.00001601  00000-0 -88599-4 0  9992","PERIOD":"95.593","CLASSIFICATION_TYPE":"U","OBJECT_TYPE":"PAYLOAD","INCLINATION":"53.0524","ELEMENT_SET_NO":"999","MEAN_MOTION":"15.06389072","MEAN_MOTION_DOT":"-0.00001601","MEAN_ELEMENT_THEORY":"SGP4","ARG_OF_PERICENTER":"51.5090"},{"ELEMENT_SET_NO":"999","MEAN_MOTION":"15.06398290","MEAN_MOTION_DOT":"0.00019700","ARG_OF_PERICENTER":"64.2715","MEAN_ELEMENT_THEORY":"SGP4","OBJECT_TYPE":"PAYLOAD","INCLINATION":"53.0535","TLE_LINE1":"1 46126U 20057K   23009.62649780  .00019700  00000-0  13378-2 0  9990","PERIOD":"95.592","CLASSIFICATION_TYPE":"U","NORAD_CAT_ID":"46126","SITE":"AFETR","SEMIMAJOR_AXIS":"6925.354","EPHEMERIS_TYPE":"0","EPOCH":"2023-01-09T15:02:09.409920","DECAY_DATE":null,"LAUNCH_DATE":"2020-08-18","REV_AT_EPOCH":"13263","ECCENTRICITY":"0.00016870","TIME_SYSTEM":"UTC","FILE":"3737502","CENTER_NAME":"EARTH","MEAN_MOTION_DDOT":"0.0000000000000","MEAN_ANOMALY":"295.8448","REF_FRAME":"TEME","APOAPSIS":"548.387","OBJECT_ID":"2020-057K","BSTAR":"0.00133780000000","GP_ID":"222579558","TLE_LINE2":"2 46126  53.0535 101.9090 0001687  64.2715 295.8448 15.06398290132637","PERIAPSIS":"546.050","RCS_SIZE":"LARGE","COUNTRY_CODE":"US","RA_OF_ASC_NODE":"101.9090","OBJECT_NAME":"STARLINK-1619"},{"ECCENTRICITY":"0.00023580","TIME_SYSTEM":"UTC","CENTER_NAME":"EARTH","MEAN_MOTION_DDOT":"0.0000000000000","FILE":"3737263","MEAN_ANOMALY":"297.2352","APOAPSIS":"548.803","REF_FRAME":"TEME","OBJECT_ID":"2020-057L","GP_ID":"222541336","BSTAR":"0.00017350000000","OBJECT_NAME":"STARLINK-1621","COUNTRY_CODE":"US","RA_OF_ASC_NODE":"82.2402","TLE_LINE2":"2 46127  53.0544  82.2402 0002358  62.8878 297.2352 15.06414090132239","PERIAPSIS":"545.537","RCS_SIZE":"LARGE","MEAN_MOTION_DOT":"0.00002304","MEAN_MOTION":"15.06414090","ELEMENT_SET_NO":"999","ARG_OF_PERICENTER":"62.8878","MEAN_ELEMENT_THEORY":"SGP4","OBJECT_TYPE":"PAYLOAD","INCLINATION":"53.0544","TLE_LINE1":"1 46127U 20057L   23009.55093068  .00002304  00000-0  17350-3 0  9992","CLASSIFICATION_TYPE":"U","PERIOD":"95.591","NORAD_CAT_ID":"46127","LAUNCH_DATE":"2020-08-18","DECAY_DATE":null,"REV_AT_EPOCH":"13223","SITE":"AFETR","EPOCH":"2023-01-09T13:13:20.410752","SEMIMAJOR_AXIS":"6925.305","EPHEMERIS_TYPE":"0"},{"MEAN_ANOMALY":"325.2246","APOAPSIS":"548.845","REF_FRAME":"TEME","ECCENTRICITY":"0.00024010","TIME_SYSTEM":"UTC","FILE":"3737263","CENTER_NAME":"EARTH","MEAN_MOTION_DDOT":"0.0000000000000","RCS_SIZE":"LARGE","TLE_LINE2":"2 46128  53.0558  62.7109 0002401  34.8900 325.2246 15.06410258132502","PERIAPSIS":"545.519","RA_OF_ASC_NODE":"62.7109","COUNTRY_CODE":"US","OBJECT_NAME":"STARLINK-1622","OBJECT_ID":"2020-057M","BSTAR":"0.00063480000000","GP_ID":"222541086","OBJECT_TYPE":"PAYLOAD","INCLINATION":"53.0558","ELEMENT_SET_NO":"999","MEAN_MOTION_DOT":"0.00009189","MEAN_MOTION":"15.06410258","ARG_OF_PERICENTER":"34.8900","MEAN_ELEMENT_THEORY":"SGP4","NORAD_CAT_ID":"46128","SITE":"AFETR","EPOCH":"2023-01-09T10:42:03.992256","SEMIMAJOR_AXIS":"6925.317","EPHEMERIS_TYPE":"0","LAUNCH_DATE":"2020-08-18","DECAY_DATE":null,"REV_AT_EPOCH":"13250","TLE_LINE1":"1 46128U 20057M   23009.44587954  .00009189  00000-0  63480-3 0  9996","PERIOD":"95.591","CLASSIFICATION_TYPE":"U"}];
